SL-16 R/B               
1 25407U 98045B   26067.72558275  .00000123  00000+0  86008-4 0  9997
2 25407  71.0116 183.6011 0006670   9.7014 350.4237 14.16189702426966
ISS (ZARYA)             
1 25544U 98067A   26067.73890429  .00009449  00000+0  18227-3 0  9991
2 25544  51.6319  77.0569 0008050 171.0721 189.0412 15.48531098556187
CZ-4B R/B               
1 25732U 99025C   26067.95775729  .00000067  00000+0  53200-4 0  9992
2 25732  98.6628 112.2567 0036783 348.7502  61.1373 14.18265191388064
OKEAN-O                 
1 25860U 99039A   26067.77326042  .00000950  00000+0  13143-3 0  9991
2 25860  97.9444 127.6741 0001275  70.0399 290.0950 14.80334151434254
SL-16 R/B               
1 25861U 99039B   26067.75398640  .00000825  00000+0  11143-3 0  9992
2 25861  97.9968 126.8521 0013472 259.4407 100.5288 14.81730457436721
DELTA 2 R/B             
1 25876U 99041E   26067.94622069  .00001382  00000+0  26052-3 0  9991
2 25876  51.7627 304.2503 0502371 346.2414  12.5237 14.11835757362921
HELIOS 1B               
1 25977U 99064A   26067.70496840  .00002360  00000+0  26549-3 0  9996
2 25977  98.1694 329.9196 0002463  76.3580 283.7909 14.87694931685113
TERRA                   
1 25994U 99068A   26067.96035284  .00000600  00000+0  13144-3 0  9990
2 25994  97.9595 121.4230 0002655 152.9224 260.1295 14.61013952394970
SL-16 R/B               
1 26070U 00006B   26067.52879362 -.00000037  00000+0  56765-5 0  9998
2 26070  71.0011 100.2788 0016850 191.9303 168.1424 14.15825843348393
TITAN 4B R/B            
1 26474U 00047B   26067.96771441  .00006164  00000+0  38454-3 0  9997
2 26474  67.9901  42.5404 0038566  36.2559 324.1192 15.09555050392803
ENVISAT                 
1 27386U 02009A   26067.83739850  .00000192  00000+0  75981-4 0  9996
2 27386  98.3728  21.4550 0001343  82.9115 287.6065 14.39036601259057
IDEFIX & ARIANE 42P R/B 
1 27422U 02021B   26067.79666400  .00000391  00000+0  16526-3 0  9996
2 27422  98.5868   6.4136 0011516 184.9171 175.1901 14.31025508243897
