CCSDS_OMM_VERS = 2.0
CREATION_DATE  = 
ORIGINATOR     = 

OBJECT_NAME    = SL-16 R/B
OBJECT_ID      = 1998-045B
CENTER_NAME    = EARTH
REF_FRAME      = TEME
TIME_SYSTEM    = UTC
MEAN_ELEMENT_THEORY = SGP/SGP4

EPOCH          = 2026-03-08T17:24:50.349600
MEAN_MOTION    = 14.16189702
ECCENTRICITY   = .00066709
INCLINATION    = 71.0116
RA_OF_ASC_NODE = 183.6011
ARG_OF_PERICENTER = 9.7014
MEAN_ANOMALY   = 350.4237

EPHEMERIS_TYPE = 0
CLASSIFICATION_TYPE = U
NORAD_CAT_ID   = 25407
ELEMENT_SET_NO = 999
REV_AT_EPOCH   = 42696
BSTAR          = .86007837E-4
MEAN_MOTION_DOT = .123E-5
MEAN_MOTION_DDOT = 0

CCSDS_OMM_VERS = 2.0
CREATION_DATE  = 
ORIGINATOR     = 

OBJECT_NAME    = ISS (ZARYA)
OBJECT_ID      = 1998-067A
CENTER_NAME    = EARTH
REF_FRAME      = TEME
TIME_SYSTEM    = UTC
MEAN_ELEMENT_THEORY = SGP/SGP4

EPOCH          = 2026-03-08T17:44:01.330656
MEAN_MOTION    = 15.48531098
ECCENTRICITY   = .00080508
INCLINATION    = 51.6319
RA_OF_ASC_NODE = 77.0569
ARG_OF_PERICENTER = 171.0721
MEAN_ANOMALY   = 189.0412

EPHEMERIS_TYPE = 0
CLASSIFICATION_TYPE = U
NORAD_CAT_ID   = 25544
ELEMENT_SET_NO = 999
REV_AT_EPOCH   = 55618
BSTAR          = .18226947E-3
MEAN_MOTION_DOT = .9449E-4
MEAN_MOTION_DDOT = 0

CCSDS_OMM_VERS = 2.0
CREATION_DATE  = 
ORIGINATOR     = 

OBJECT_NAME    = CZ-4B R/B
OBJECT_ID      = 1999-025C
CENTER_NAME    = EARTH
REF_FRAME      = TEME
TIME_SYSTEM    = UTC
MEAN_ELEMENT_THEORY = SGP/SGP4

EPOCH          = 2026-03-08T22:59:10.229856
MEAN_MOTION    = 14.18265191
ECCENTRICITY   = .00367837
INCLINATION    = 98.6628
RA_OF_ASC_NODE = 112.2567
ARG_OF_PERICENTER = 348.7502
MEAN_ANOMALY   = 61.1373

EPHEMERIS_TYPE = 0
CLASSIFICATION_TYPE = U
NORAD_CAT_ID   = 25732
ELEMENT_SET_NO = 999
REV_AT_EPOCH   = 38806
BSTAR          = .53199639E-4
MEAN_MOTION_DOT = .67E-6
MEAN_MOTION_DDOT = 0

CCSDS_OMM_VERS = 2.0
CREATION_DATE  = 
ORIGINATOR     = 

OBJECT_NAME    = OKEAN-O
OBJECT_ID      = 1999-039A
CENTER_NAME    = EARTH
REF_FRAME      = TEME
TIME_SYSTEM    = UTC
MEAN_ELEMENT_THEORY = SGP/SGP4

EPOCH          = 2026-03-08T18:33:29.700288
MEAN_MOTION    = 14.80334151
ECCENTRICITY   = .00012754
INCLINATION    = 97.9444
RA_OF_ASC_NODE = 127.6741
ARG_OF_PERICENTER = 70.0399
MEAN_ANOMALY   = 290.0950

EPHEMERIS_TYPE = 0
CLASSIFICATION_TYPE = U
NORAD_CAT_ID   = 25860
ELEMENT_SET_NO = 999
REV_AT_EPOCH   = 43425
BSTAR          = .13142761E-3
MEAN_MOTION_DOT = .95E-5
MEAN_MOTION_DDOT = 0

CCSDS_OMM_VERS = 2.0
CREATION_DATE  = 
ORIGINATOR     = 

OBJECT_NAME    = SL-16 R/B
OBJECT_ID      = 1999-039B
CENTER_NAME    = EARTH
REF_FRAME      = TEME
TIME_SYSTEM    = UTC
MEAN_ELEMENT_THEORY = SGP/SGP4

EPOCH          = 2026-03-08T18:05:44.424960
MEAN_MOTION    = 14.81730457
ECCENTRICITY   = .0013472
INCLINATION    = 97.9968
RA_OF_ASC_NODE = 126.8521
ARG_OF_PERICENTER = 259.4407
MEAN_ANOMALY   = 100.5288

EPHEMERIS_TYPE = 0
CLASSIFICATION_TYPE = U
NORAD_CAT_ID   = 25861
ELEMENT_SET_NO = 999
REV_AT_EPOCH   = 43672
BSTAR          = .11143293E-3
MEAN_MOTION_DOT = .825E-5
MEAN_MOTION_DDOT = 0

CCSDS_OMM_VERS = 2.0
CREATION_DATE  = 
ORIGINATOR     = 

OBJECT_NAME    = DELTA 2 R/B
OBJECT_ID      = 1999-041E
CENTER_NAME    = EARTH
REF_FRAME      = TEME
TIME_SYSTEM    = UTC
MEAN_ELEMENT_THEORY = SGP/SGP4

EPOCH          = 2026-03-08T22:42:33.467616
MEAN_MOTION    = 14.11835757
ECCENTRICITY   = .05023718
INCLINATION    = 51.7627
RA_OF_ASC_NODE = 304.2503
ARG_OF_PERICENTER = 346.2414
MEAN_ANOMALY   = 12.5237

EPHEMERIS_TYPE = 0
CLASSIFICATION_TYPE = U
NORAD_CAT_ID   = 25876
ELEMENT_SET_NO = 999
REV_AT_EPOCH   = 36292
BSTAR          = .26052408E-3
MEAN_MOTION_DOT = .1382E-4
MEAN_MOTION_DDOT = 0

CCSDS_OMM_VERS = 2.0
CREATION_DATE  = 
ORIGINATOR     = 

OBJECT_NAME    = HELIOS 1B
OBJECT_ID      = 1999-064A
CENTER_NAME    = EARTH
REF_FRAME      = TEME
TIME_SYSTEM    = UTC
MEAN_ELEMENT_THEORY = SGP/SGP4

EPOCH          = 2026-03-08T16:55:09.269760
MEAN_MOTION    = 14.87694931
ECCENTRICITY   = .00024631
INCLINATION    = 98.1694
RA_OF_ASC_NODE = 329.9196
ARG_OF_PERICENTER = 76.3580
MEAN_ANOMALY   = 283.7909

EPHEMERIS_TYPE = 0
CLASSIFICATION_TYPE = U
NORAD_CAT_ID   = 25977
ELEMENT_SET_NO = 999
REV_AT_EPOCH   = 68511
BSTAR          = .26549045E-3
MEAN_MOTION_DOT = .236E-4
MEAN_MOTION_DDOT = 0

CCSDS_OMM_VERS = 2.0
CREATION_DATE  = 
ORIGINATOR     = 

OBJECT_NAME    = TERRA
OBJECT_ID      = 1999-068A
CENTER_NAME    = EARTH
REF_FRAME      = TEME
TIME_SYSTEM    = UTC
MEAN_ELEMENT_THEORY = SGP/SGP4

EPOCH          = 2026-03-08T23:02:54.485376
MEAN_MOTION    = 14.61013952
ECCENTRICITY   = .00026555
INCLINATION    = 97.9595
RA_OF_ASC_NODE = 121.4230
ARG_OF_PERICENTER = 152.9224
MEAN_ANOMALY   = 260.1295

EPHEMERIS_TYPE = 0
CLASSIFICATION_TYPE = U
NORAD_CAT_ID   = 25994
ELEMENT_SET_NO = 999
REV_AT_EPOCH   = 39497
BSTAR          = .13143822E-3
MEAN_MOTION_DOT = .6E-5
MEAN_MOTION_DDOT = 0

CCSDS_OMM_VERS = 2.0
CREATION_DATE  = 
ORIGINATOR     = 

OBJECT_NAME    = SL-16 R/B
OBJECT_ID      = 2000-006B
CENTER_NAME    = EARTH
REF_FRAME      = TEME
TIME_SYSTEM    = UTC
MEAN_ELEMENT_THEORY = SGP/SGP4

EPOCH          = 2026-03-08T12:41:27.768768
MEAN_MOTION    = 14.15825843
ECCENTRICITY   = .00168505
INCLINATION    = 71.0011
RA_OF_ASC_NODE = 100.2788
ARG_OF_PERICENTER = 191.9303
MEAN_ANOMALY   = 168.1424

EPHEMERIS_TYPE = 0
CLASSIFICATION_TYPE = U
NORAD_CAT_ID   = 26070
ELEMENT_SET_NO = 999
REV_AT_EPOCH   = 34839
BSTAR          = .5676514E-5
MEAN_MOTION_DOT = -.37E-6
MEAN_MOTION_DDOT = 0

CCSDS_OMM_VERS = 2.0
CREATION_DATE  = 
ORIGINATOR     = 

OBJECT_NAME    = TITAN 4B R/B
OBJECT_ID      = 2000-047B
CENTER_NAME    = EARTH
REF_FRAME      = TEME
TIME_SYSTEM    = UTC
MEAN_ELEMENT_THEORY = SGP/SGP4

EPOCH          = 2026-03-08T23:13:30.525024
MEAN_MOTION    = 15.09555050
ECCENTRICITY   = .00385662
INCLINATION    = 67.9901
RA_OF_ASC_NODE = 42.5404
ARG_OF_PERICENTER = 36.2559
MEAN_ANOMALY   = 324.1192

EPHEMERIS_TYPE = 0
CLASSIFICATION_TYPE = U
NORAD_CAT_ID   = 26474
ELEMENT_SET_NO = 999
REV_AT_EPOCH   = 39280
BSTAR          = .38453865E-3
MEAN_MOTION_DOT = .6164E-4
MEAN_MOTION_DDOT = 0

CCSDS_OMM_VERS = 2.0
CREATION_DATE  = 
ORIGINATOR     = 

OBJECT_NAME    = ENVISAT
OBJECT_ID      = 2002-009A
CENTER_NAME    = EARTH
REF_FRAME      = TEME
TIME_SYSTEM    = UTC
MEAN_ELEMENT_THEORY = SGP/SGP4

EPOCH          = 2026-03-08T20:05:51.230400
MEAN_MOTION    = 14.39036601
ECCENTRICITY   = .00013432
INCLINATION    = 98.3728
RA_OF_ASC_NODE = 21.4550
ARG_OF_PERICENTER = 82.9115
MEAN_ANOMALY   = 287.6065

EPHEMERIS_TYPE = 0
CLASSIFICATION_TYPE = U
NORAD_CAT_ID   = 27386
ELEMENT_SET_NO = 999
REV_AT_EPOCH   = 25905
BSTAR          = .75980762E-4
MEAN_MOTION_DOT = .192E-5
MEAN_MOTION_DDOT = 0

CCSDS_OMM_VERS = 2.0
CREATION_DATE  = 
ORIGINATOR     = 

OBJECT_NAME    = IDEFIX & ARIANE 42P R/B
OBJECT_ID      = 2002-021B
CENTER_NAME    = EARTH
REF_FRAME      = TEME
TIME_SYSTEM    = UTC
MEAN_ELEMENT_THEORY = SGP/SGP4

EPOCH          = 2026-03-08T19:07:11.769600
MEAN_MOTION    = 14.31025508
ECCENTRICITY   = .00115162
INCLINATION    = 98.5868
RA_OF_ASC_NODE = 6.4136
ARG_OF_PERICENTER = 184.9171
MEAN_ANOMALY   = 175.1901

EPHEMERIS_TYPE = 0
CLASSIFICATION_TYPE = U
NORAD_CAT_ID   = 27422
ELEMENT_SET_NO = 999
REV_AT_EPOCH   = 24389
BSTAR          = .16525564E-3
MEAN_MOTION_DOT = .391E-5
MEAN_MOTION_DDOT = 0

